COSMOS 2425 (716)       
1 29670U 06062A   19048.15124383  .00000057  00000-0  10000-3 0  9993
2 29670  65.1605 284.2520 0023244 347.9702  94.1927  2.13105928 94533
COSMOS 2426 (717)       
1 29671U 06062B   19047.71600346  .00000056  00000-0  10000-3 0  9992
2 29671  65.1780 284.3712 0016346 161.6655 160.6198  2.13103123 94528
COSMOS 2433 (720)       
1 32275U 07052A   19047.59062819  .00000007  00000-0  10000-3 0  9995
2 32275  65.8027  45.1711 0005370 270.2987 292.1205  2.13104499 88031
COSMOS 2432 (719)       
1 32276U 07052B   19048.45034169  .00000001  00000-0  10000-3 0  9993
2 32276  65.8143  45.2228 0012742 322.1932 131.1173  2.13103854 88055
COSMOS 2434 (721)       
1 32393U 07065A   19048.40882822  .00000058  00000-0  00000+0 0  9996
2 32393  64.7754 283.1026 0004285  83.7950 273.8589  2.13102994 86757
COSMOS 2436 (723)       
1 32395U 07065C   19047.54374745  .00000058  00000-0  10000-3 0  9997
2 32395  64.7852 283.1838 0017258   2.5564 103.1234  2.13104329 86670
COSMOS 2456 (730)       
1 36111U 09070A   19047.65817422 -.00000001  00000-0  00000-0 0  9996
2 36111  64.1951 162.7461 0003426 331.6670 342.9689  2.13102836 71407
COSMOS 2457 (733)       
1 36112U 09070B   19047.67661573 -.00000001  00000-0  00000+0 0  9992
2 36112  64.1775 162.6501 0006231 156.0603 298.3788  2.13101497 71415
COSMOS 2458 (734)       
1 36113U 09070C   19047.84427326 -.00000001  00000-0  10000-3 0  9993
2 36113  64.1829 162.6590 0002765  43.4343 219.6626  2.13092070 71415
COSMOS 2459 (731)       
1 36400U 10007A   19047.78724741  .00000004  00000-0  10000-3 0  9990
2 36400  65.7083  44.1957 0027465 345.3580 224.8107  2.13102249 69762
COSMOS 2461 (735)       
1 36401U 10007B   19047.45391010  .00000006  00000-0  10000-3 0  9996
2 36401  65.7007  44.1801 0004708  44.7311 180.2491  2.13102143 69757
COSMOS 2460 (732)       
1 36402U 10007C   19048.33109193  .00000000  00000-0  10000-3 0  9998
2 36402  65.6920  44.1159 0002778 282.7018 295.3876  2.13101596 69778
COSMOS 2464 (736)       
1 37139U 10041C   19048.53275769  .00000057  00000-0  00000+0 0  9996
2 37139  64.3778 282.7811 0026475  12.9117 306.9466  2.13100068 65842
COSMOS 2471 (701K)      
1 37372U 11009A   19048.44565057 -.00000001  00000-0  00000+0 0  9992
2 37372  65.6880  44.0557 0010033 240.9855 214.2711  2.13107625 62050
COSMOS 2474 (742)       
1 37829U 11055A   19047.77311674 -.00000000  00000-0  00000+0 0  9998
2 37829  64.5162 163.5621 0007572 241.5425  18.2586  2.13101857 57407
COSMOS 2476 (744)       
1 37867U 11064A   19047.70544953  .00000000  00000-0  00000+0 0  9990
2 37867  64.4981 163.6202 0017628 237.7392  16.2521  2.13101931 56753
COSMOS 2477 (745)       
1 37868U 11064B   19047.61339819  .00000000  00000-0  00000-0 0  9995
2 37868  64.5065 163.6738 0015320 238.7163 123.4281  2.13101733 56716
COSMOS 2475 (743)       
1 37869U 11064C   19047.80865287 -.00000000  00000-0  00000+0 0  9990
2 37869  64.5135 163.6648 0019325 264.8706 204.0466  2.13101916 56722
COSMOS 2485 (747)       
1 39155U 13019A   19047.64094694  .00000000  00000-0  00000-0 0  9990
2 39155  64.6668 163.7849 0018109 232.5256  16.7763  2.13101867 45225
COSMOS 2492 (754)       
1 39620U 14012A   19048.47168756 -.00000001  00000-0  10000-3 0  9990
2 39620  65.5813  43.9620 0016190 320.6634 240.9639  2.13103422 38197
COSMOS 2500 (755)       
1 40001U 14032A   19048.54297058 -.00000002  00000-0  00000+0 0  9999
2 40001  65.5239  43.9109 0007287 229.0807 248.9097  2.13102739 36416
COSMOS 2501 (702K)      
1 40315U 14075A   19047.39446036  .00000055  00000-0  00000-0 0  9996
2 40315  64.0992 283.9444 0014725 207.4932 268.5113  2.13098515 32796
COSMOS 2514 (751)       
1 41330U 16008A   19048.38544192 -.00000001  00000-0  00000+0 0  9995
2 41330  65.3250  43.9082 0011006 229.8906 308.6898  2.13103173 23574
COSMOS 2516 (753)       
1 41554U 16032A   19048.42208637  .00000055  00000-0  00000+0 0  9994
2 41554  64.3234 283.8421 0010655 220.5381 236.8491  2.13101810 21181
COSMOS 2522 (752)       
1 42939U 17055A   19047.32097084  .00000055  00000-0  00000+0 0  9998
2 42939  64.5534 283.9179 0006164 257.4809 301.6424  2.13102023 10912
